{"fetched_at":"2026-03-30T13:17:50Z","count":15418,"tles":[{"name":"STARLINK-5835","line1":"1 55772U 23028AH  26087.70025273 -.00000226  00000+0 -11105-4 0  9993","line2":"2 55772  70.0009 176.4073 0003368 273.7915  86.2859 14.98341638169388","category":"Starlink"}]}